[{"OBJECT_NAME":"GENMAT-1","OBJECT_ID":"2023-174W","EPOCH":"2026-03-09T18:03:23.351040","MEAN_MOTION":15.32594666,"ECCENTRICITY":0.00074416,"INCLINATION":97.3728,"RA_OF_ASC_NODE":146.8236,"ARG_OF_PERICENTER":169.2515,"MEAN_ANOMALY":190.8888,"EPHEMERIS_TYPE":0,"CLASSIFICATION_TYPE":"U","NORAD_CAT_ID":58276,"ELEMENT_SET_NO":999,"REV_AT_EPOCH":12973,"BSTAR":0.00042157222,"MEAN_MOTION_DOT":0.0001321,"MEAN_MOTION_DDOT":0},{"OBJECT_NAME":"STARLINK-35525","OBJECT_ID":"2025-237W","EPOCH":"2026-03-09T03:37:56.649504","MEAN_MOTION":15.30190816,"ECCENTRICITY":0.00010223,"INCLINATION":53.1581,"RA_OF_ASC_NODE":42.441,"ARG_OF_PERICENTER":74.7663,"MEAN_ANOMALY":285.3451,"EPHEMERIS_TYPE":0,"CLASSIFICATION_TYPE":"U","NORAD_CAT_ID":66134,"ELEMENT_SET_NO":999,"REV_AT_EPOCH":2252,"BSTAR":0.0006743776,"MEAN_MOTION_DOT":0.00019661,"MEAN_MOTION_DDOT":0}]
